     2.100          NAVIGATION                              RINEX VERSION / TYPE
fic2rin                                 10/16/2011 00:04:24 PGM / RUN BY / DATE
                                                            END OF HEADER
20 11 10 15 10  0  0.0  .544134527445D-04  .568434188608D-12  .000000000000D+00
     .250000000000D+02  .106968750000D+03  .484984487265D-08  .157352621824D+01
     .550039112568D-05  .463239056990D-02  .977888703346D-05  .515358373833D+04
     .554400000000D+06 -.782310962677D-07 -.237178449949D+01 -.987201929092D-07
     .932203575529D+00  .173062500000D+03  .126292571733D+01 -.824034324337D-08
     .112147528538D-09  .100000000000D+01  .165700000000D+04  .000000000000D+00
     .240000000000D+01  .000000000000D+00 -.745058059692D-08  .250000000000D+02
     .547206000000D+06  .400000000000D+01
21 11 10 15 10  0  0.0 -.178010668606D-03 -.250111042988D-11  .000000000000D+00
     .130000000000D+02 -.240312500000D+02  .500163690968D-08  .222837354153D+01
    -.151060521603D-05  .181678124936D-01  .919587910175D-05  .515370525169D+04
     .554400000000D+06 -.193715095520D-06  .291281003898D+01 -.324100255966D-06
     .931916030203D+00  .187781250000D+03 -.232506349106D+01 -.804783522464D-08
    -.485377360772D-09  .100000000000D+01  .165700000000D+04  .000000000000D+00
     .240000000000D+01  .000000000000D+00 -.116415321827D-07  .130000000000D+02
     .547206000000D+06  .400000000000D+01
22 11 10 15 10  0  0.0  .143948476762D-03 -.341060513165D-12  .000000000000D+00
     .210000000000D+02  .990625000000D+02  .501520890358D-08  .278251212863D+00
     .512972474098D-05  .587995105889D-02  .860169529915D-05  .515370728683D+04
     .554400000000D+06 -.137835741043D-06 -.231408286599D+01  .651925802231D-07
     .929585682164D+00  .198906250000D+03 -.197138780179D+01 -.831356057888D-08
     .120004998690D-09  .100000000000D+01  .165700000000D+04  .000000000000D+00
     .240000000000D+01  .000000000000D+00 -.167638063431D-07  .210000000000D+02
     .547206000000D+06  .400000000000D+01
23 11 10 15 10  0  0.0  .267766416073D-03 -.318323145621D-11  .000000000000D+00
     .560000000000D+02  .334062500000D+02  .476805575152D-08 -.154654013855D+01
     .142492353916D-05  .757806946058D-02  .151991844177D-05  .515371953583D+04
     .554400000000D+06  .149011611938D-07 -.127121682456D+01 -.109896063805D-06
     .962499833604D+00  .350687500000D+03 -.304153756823D+01 -.845285209522D-08
     .266082511976D-09  .100000000000D+01  .165700000000D+04  .000000000000D+00
     .240000000000D+01  .000000000000D+00 -.200234353542D-07  .560000000000D+02
     .547206000000D+06  .400000000000D+01
26 11 10 15 10  0  0.0 -.191278755665D-03 -.130739863380D-10  .000000000000D+00
     .910000000000D+02  .170000000000D+02  .414302971667D-08 -.171654056448D+01
     .117905437946D-05  .204010567395D-01  .152736902237D-05  .515365499496D+04
     .554400000000D+06  .406056642532D-06 -.120324552810D+01  .800937414169D-07
     .985524470113D+00  .356187500000D+03  .116305728276D+01 -.792640159501D-08
     .185722021782D-09  .100000000000D+01  .165700000000D+04  .000000000000D+00
     .240000000000D+01  .000000000000D+00 -.605359673500D-08  .910000000000D+02
     .547206000000D+06  .400000000000D+01
27 11 10 15 10  0  0.0  .315382611006D-03  .386535248253D-11  .000000000000D+00
     .510000000000D+02 -.847187500000D+02  .414731560948D-08 -.759780690384D+00
    -.459700822830D-05  .216916360660D-01  .721588730812D-05  .515361463737D+04
     .554400000000D+06 -.281259417534D-06 -.278640903518D+00 -.763684511185D-07
     .981811396774D+00  .256562500000D+03 -.119389814720D+01 -.827677333226D-08
    -.107147320259D-11  .100000000000D+01  .165700000000D+04  .000000000000D+00
     .340000000000D+01  .630000000000D+02 -.419095158577D-08  .510000000000D+02
     .547206000000D+06  .400000000000D+01
28 11 10 15 10  0  0.0  .757244415581D-04  .318323145621D-11  .000000000000D+00
     .610000000000D+02 -.137500000000D+02  .426482050404D-08  .329832209235D+00
    -.543892383575D-06  .172789560165D-01  .984035432339D-05  .515370561790D+04
     .554400000000D+06 -.165775418282D-06  .854813264918D+00  .800937414169D-07
     .976195876008D+00  .203156250000D+03 -.187817284884D+01 -.808676541767D-08
     .269296931584D-09  .100000000000D+01  .165700000000D+04  .000000000000D+00
     .240000000000D+01  .000000000000D+00 -.102445483208D-07  .610000000000D+02
     .547206000000D+06  .400000000000D+01
29 11 10 15 10  0  0.0  .248575117439D-03  .329691829393D-11  .000000000000D+00
     .950000000000D+02  .415625000000D+01  .485698802733D-08  .243068577262D+01
     .184401869774D-06  .214757409412D-02  .504776835442D-05  .515370044136D+04
     .554400000000D+06  .298023223877D-07  .189840961992D+01  .242143869400D-07
     .961896508633D+00  .281375000000D+03 -.116673540406D+01 -.812819571483D-08
    -.428589281035D-11  .100000000000D+01  .165700000000D+04  .000000000000D+00
     .240000000000D+01  .000000000000D+00 -.931322574615D-08  .950000000000D+02
     .547206000000D+06  .400000000000D+01
32 11 10 15 10  0  0.0 -.345739070326D-03 -.625277607469D-11  .000000000000D+00
     .540000000000D+02  .125312500000D+03  .428124975981D-08 -.241170350646D+01
     .665150582790D-05  .121780590853D-01  .891461968422D-05  .515355827713D+04
     .554400000000D+06 -.113621354103D-06 -.224405559177D+01  .195577740669D-06
     .953750762793D+00  .203781250000D+03 -.713242618401D+00 -.788497129785D-08
     .217509060125D-09  .100000000000D+01  .165700000000D+04  .000000000000D+00
     .240000000000D+01  .000000000000D+00 -.279396772385D-08  .540000000000D+02
     .547206000000D+06  .400000000000D+01
12 11 10 15  9 59 44.0  .286153517663D-04  .238742359215D-11  .000000000000D+00
     .100000000000D+01 -.127500000000D+02  .402838208400D-08  .293350047559D+01
    -.745058059692D-06  .357414025348D-02  .101178884506D-04  .515364898300D+04
     .554384000000D+06 -.800937414169D-07  .829819646005D+00  .000000000000D+00
     .976960297518D+00  .191687500000D+03 -.638537891838D-01 -.760995984252D-08
     .341442793891D-09  .100000000000D+01  .165700000000D+04  .000000000000D+00
     .240000000000D+01  .000000000000D+00 -.121071934700D-07  .100000000000D+01
     .550206000000D+06  .400000000000D+01
 6 11 10 15  9 59 44.0 -.492325052619D-04  .727595761418D-11  .000000000000D+00
     .290000000000D+02  .309375000000D+01  .550272921076D-08  .486655422512D+00
    -.931322574615D-07  .667706434615D-02  .509619712830D-05  .515369520760D+04
     .554384000000D+06  .726431608200D-07  .180258466020D+01 -.782310962677D-07
     .936271002737D+00  .268906250000D+03 -.665824131596D+00 -.857928593312D-08
     .485734518507D-10  .100000000000D+01  .165700000000D+04  .000000000000D+00
     .240000000000D+01  .000000000000D+00 -.465661287308D-08  .290000000000D+02
     .552186000000D+06  .400000000000D+01
 6 11 10 15 11 59 44.0 -.491798855364D-04  .727595761418D-11  .000000000000D+00
     .300000000000D+02  .803125000000D+01  .553380193363D-08  .153671288395D+01
     .454485416412D-06  .667743920349D-02  .453554093838D-05  .515369685173D+04
     .561584000000D+06  .108033418655D-06  .180252350145D+01  .279396772385D-07
     .936271661050D+00  .272625000000D+03 -.665707153741D+00 -.847749597888D-08
     .135719938995D-10  .100000000000D+01  .165700000000D+04  .000000000000D+00
     .240000000000D+01  .000000000000D+00 -.465661287308D-08  .300000000000D+02
     .554406000000D+06  .400000000000D+01
12 11 10 15 11 59 44.0  .286321155727D-04  .238742359215D-11  .000000000000D+00
     .100000000000D+02 -.171875000000D+02  .407409827397D-08 -.229958394635D+01
    -.957399606705D-06  .357413885649D-02  .100284814835D-04  .515364879227D+04
     .561584000000D+06 -.875443220139D-07  .829764472049D+00 -.108033418655D-06
     .976962540171D+00  .193343750000D+03 -.637623085275D-01 -.768174854709D-08
     .374301305437D-09  .100000000000D+01  .165700000000D+04  .000000000000D+00
     .240000000000D+01  .000000000000D+00 -.121071934700D-07  .100000000000D+02
     .554406000000D+06  .400000000000D+01
 1 11 10 15 12  0  0.0  .278097577393D-04  .298996383208D-10  .000000000000D+00
     .460000000000D+02 -.168437500000D+02  .442196990708D-08 -.285773531189D+01
    -.787898898125D-06  .391753157601D-03  .911578536034D-05  .515366375923D+04
     .561600000000D+06 -.353902578354D-07  .289697724527D+01 -.111758708954D-07
     .960592068470D+00  .205406250000D+03  .149528777210D+01 -.783532637279D-08
    -.561094800422D-09  .100000000000D+01  .165700000000D+04  .000000000000D+00
     .240000000000D+01  .000000000000D+00  .791624188423D-08  .460000000000D+02
     .554406000000D+06  .400000000000D+01
 2 11 10 15 12  0  0.0  .360915437341D-03  .181898940355D-11  .000000000000D+00
     .430000000000D+02 -.196875000000D+02  .510306970619D-08 -.604704720630D+00
    -.112503767014D-05  .105563650141D-01  .860542058945D-05  .515358073235D+04
     .561600000000D+06  .286847352982D-06  .288812525378D+01 -.111758708954D-07
     .939176618442D+00  .205062500000D+03 -.292378106438D+01 -.830248868912D-08
    -.583238579942D-09  .100000000000D+01  .165700000000D+04  .000000000000D+00
     .240000000000D+01  .000000000000D+00 -.172294676304D-07  .430000000000D+02
     .554406000000D+06  .400000000000D+01
 3 11 10 15 12  0  0.0  .781618990004D-03  .511590769747D-11  .000000000000D+00
     .590000000000D+02  .130312500000D+02  .581631370138D-08 -.434376096342D+00
     .847503542900D-06  .148787932703D-01  .520795583725D-05  .515367044067D+04
     .561600000000D+06 -.987201929092D-07  .172768593900D+01  .163912773132D-06
     .929228583860D+00  .261687500000D+03  .114620870310D+01 -.890394231351D-08
     .166435504135D-09  .100000000000D+01  .165700000000D+04  .000000000000D+00
     .340000000000D+01  .000000000000D+00 -.465661287308D-08  .590000000000D+02
     .554406000000D+06  .400000000000D+01
